NORAD_CAT_ID,OBJECT_NAME,OBJECT_TYPE,EPOCH,MEAN_MOTION,ECCENTRICITY,INCLINATION,RA_OF_ASC_NODE,ARG_OF_PERICENTER,MEAN_ANOMALY,BSTAR,MEAN_MOTION_DOT,MEAN_MOTION_DDOT,TLE_LINE0,TLE_LINE1,TLE_LINE2,SEMIMAJOR_AXIS,PERIOD,APOGEE,PERIGEE,DECAYED
50814.0,STARLINK-3324,PAYLOAD,2023-10-12 19:59:43,15.08850454,7.71e-05,53.2146,154.4615,95.4227,264.6853,0.00070142,0.00010896,0.0,0 STARLINK-3324,1 50814U 22001M   23285.83313764  .00010896  00000-0  70142-3 0  9999,2 50814  53.2146 154.4615 0000771  95.4227 264.6853 15.08850454 99003,6917.848,95.437,540.247,539.18,0.0
50814.0,STARLINK-3324,PAYLOAD,2023-10-12 21:35:06,15.08843692,0.0001407,53.2152,154.1625,83.383,276.7322,0.00066864,0.00010371,0.0,0 STARLINK-3324,1 50814U 22001M   23285.89937986  .00010371  00000-0  66864-3 0  9997,2 50814  53.2152 154.1625 0001407  83.3830 276.7322 15.08843692 97741,6917.869,95.437,540.707,538.761,0.0
50814.0,STARLINK-3324,PAYLOAD,2023-10-13 21:25:53,15.08861527,0.0001135,53.2149,149.7021,97.8978,262.2143,0.001024,0.00016056,0.0,0 STARLINK-3324,1 50814U 22001M   23286.89297581  .00016056  00000-0  10240-2 0  9990,2 50814  53.2149 149.7021 0001135  97.8978 262.2143 15.08861527 99164,6917.815,95.436,540.465,538.894,0.0
50814.0,STARLINK-3324,PAYLOAD,2023-10-14 08:33:35,15.08845747,0.000142,53.2147,147.6205,93.6333,266.4822,0.00048142,7.383e-05,0.0,0 STARLINK-3324,1 50814U 22001M   23287.35665767  .00007383  00000-0  48142-3 0  9993,2 50814  53.2147 147.6205 0001420  93.6333 266.4822 15.08845747 99233,6917.863,95.437,540.71,538.745,0.0
50814.0,STARLINK-3324,PAYLOAD,2023-10-14 19:41:17,15.08837186,0.0001558,53.2144,145.5376,109.9025,250.2135,2.4145e-05,9.6e-07,0.0,0 STARLINK-3324,1 50814U 22001M   23287.82033930  .00000096  00000-0  24145-4 0  9998,2 50814  53.2144 145.5376 0001558 109.9025 250.2135 15.08837186 99301,6917.889,95.438,540.832,538.676,0.0
50814.0,STARLINK-3324,PAYLOAD,2023-10-14 21:16:40,15.08840769,0.0001488,53.2147,145.2396,106.6315,253.484,9.4027e-05,1.209e-05,0.0,0 STARLINK-3324,1 50814U 22001M   23287.88657918  .00001209  00000-0  94027-4 0  9995,2 50814  53.2147 145.2396 0001488 106.6315 253.4840 15.08840769 98040,6917.878,95.438,540.772,538.714,0.0
50814.0,STARLINK-3324,PAYLOAD,2023-10-15 00:27:26,15.08839298,0.0001475,53.2146,144.6455,109.856,250.2591,0.00010723,1.419e-05,0.0,0 STARLINK-3324,1 50814U 22001M   23288.01905945  .00001419  00000-0  10723-3 0  9990,2 50814  53.2146 144.6455 0001475 109.8560 250.2591 15.08839298 98066,6917.883,95.438,540.768,538.727,0.0
50814.0,STARLINK-3324,PAYLOAD,2023-10-15 21:07:27,15.08844044,0.0001313,53.215,140.7805,92.0549,268.0593,0.00016762,2.381e-05,0.0,0 STARLINK-3324,1 50814U 22001M   23288.88018131  .00002381  00000-0  16762-3 0  9995,2 50814  53.2150 140.7805 0001313  92.0549 268.0593 15.08844044 99467,6917.868,95.437,540.641,538.825,0.0
50814.0,STARLINK-3324,PAYLOAD,2023-10-16 14:36:42,15.08837239,0.0001473,53.2147,137.5098,93.2571,266.8589,0.00012462,1.696e-05,0.0,0 STARLINK-3324,1 50814U 22001M   23289.60882581  .00001696  00000-0  12462-3 0  9995,2 50814  53.2147 137.5098 0001473  93.2571 266.8589 15.08837239 98307,6917.889,95.438,540.773,538.735,0.0
50814.0,STARLINK-3324,PAYLOAD,2023-10-17 20:49:01,15.08842171,0.0001138,53.2146,131.8605,98.4832,261.629,7.511e-05,9.08e-06,0.0,0 STARLINK-3324,1 50814U 22001M   23290.86738312  .00000908  00000-0  75110-4 0  9992,2 50814  53.2146 131.8605 0001138  98.4832 261.6290 15.08842171 98495,6917.874,95.437,540.526,538.951,0.0
50814.0,STARLINK-3324,PAYLOAD,2023-10-18 12:42:53,15.08842328,0.0001109,53.2147,128.8871,92.7273,267.3846,0.00013867,1.92e-05,0.0,0 STARLINK-3324,1 50814U 22001M   23291.52978356  .00001920  00000-0  13867-3 0  9995,2 50814  53.2147 128.8871 0001109  92.7273 267.3846 15.08842328 99867,6917.873,95.437,540.505,538.971,0.0
50814.0,STARLINK-3324,PAYLOAD,2023-10-18 15:53:39,15.08842937,0.0001093,53.2144,128.2924,95.6771,264.4345,0.00016018,2.263e-05,0.0,0 STARLINK-3324,1 50814U 22001M   23291.66226318  .00002263  00000-0  16018-3 0  9996,2 50814  53.2144 128.2924 0001093  95.6771 264.4345 15.08842937 98614,6917.871,95.437,540.493,538.98,0.0
50814.0,STARLINK-3324,PAYLOAD,2023-10-19 06:12:07,15.08846433,0.0001015,53.2148,125.6162,90.9157,269.1952,0.00022027,3.22e-05,0.0,0 STARLINK-3324,1 50814U 22001M   23292.25842132  .00003220  00000-0  22027-3 0  9991,2 50814  53.2148 125.6162 0001015  90.9157 269.1952 15.08846433 98704,6917.861,95.437,540.428,539.024,0.0
50814.0,STARLINK-3324,PAYLOAD,2023-10-19 18:55:12,15.08849566,0.0001045,53.2148,123.237,89.83,270.2812,0.00021619,3.155e-05,0.0,0 STARLINK-3324,1 50814U 22001M   23292.78833896  .00003155  00000-0  21619-3 0  9999,2 50814  53.2148 123.2370 0001045  89.8300 270.2812 15.08849566100059,6917.851,95.437,540.439,538.993,0.0
50814.0,STARLINK-3324,PAYLOAD,2023-10-19 22:05:58,15.08856262,0.0001331,53.2142,122.6417,87.4609,272.6536,0.00026888,3.996e-05,0.0,0 STARLINK-3324,1 50814U 22001M   23292.92081536  .00003996  00000-0  26888-3 0  9997,2 50814  53.2142 122.6417 0001331  87.4609 272.6536 15.08856262 98801,6917.831,95.437,540.616,538.775,0.0
50814.0,STARLINK-3324,PAYLOAD,2023-10-20 12:24:27,15.08838259,0.0001242,53.2143,119.9658,83.1898,276.9235,-2.2791e-06,-3.24e-06,0.0,0 STARLINK-3324,1 50814U 22001M   23293.51698252 -.00000324  00000-0 -22791-5 0  9997,2 50814  53.2143 119.9658 0001242  83.1898 276.9235 15.08838259100164,6917.886,95.438,540.61,538.892,0.0
50814.0,STARLINK-3324,PAYLOAD,2023-10-20 21:56:46,15.08839019,0.0001299,53.2145,118.1818,78.3784,281.7354,5.409e-05,5.73e-06,0.0,0 STARLINK-3324,1 50814U 22001M   23293.91442371  .00000573  00000-0  54090-4 0  9990,2 50814  53.2145 118.1818 0001299  78.3784 281.7354 15.08839019 98951,6917.883,95.438,540.647,538.85,0.0
50814.0,STARLINK-3324,PAYLOAD,2023-10-21 05:53:41,15.08842187,0.0001264,53.2146,116.695,84.7136,275.4,0.00010954,1.456e-05,0.0,0 STARLINK-3324,1 50814U 22001M   23294.24562276  .00001456  00000-0  10954-3 0  9995,2 50814  53.2146 116.6950 0001264  84.7136 275.4000 15.08842187 99001,6917.874,95.437,540.613,538.864,0.0
50814.0,STARLINK-3324,PAYLOAD,2023-10-21 18:36:46,15.08845594,0.0001319,53.2148,114.3162,78.8198,281.2942,0.00020513,2.979e-05,0.0,0 STARLINK-3324,1 50814U 22001M   23294.77554169  .00002979  00000-0  20513-3 0  9998,2 50814  53.2148 114.3162 0001319  78.8198 281.2942 15.08845594100352,6917.863,95.437,540.641,538.816,0.0
50814.0,STARLINK-3324,PAYLOAD,2023-10-21 21:47:32,15.08856297,0.0001463,53.2146,113.72,90.6265,269.4894,4.9867e-05,5.06e-06,0.0,0 STARLINK-3324,1 50814U 22001M   23294.90801600  .00000506  00000-0  49867-4 0  9996,2 50814  53.2146 113.7200 0001463  90.6265 269.4894 15.08856297 99109,6917.831,95.437,540.708,538.683,0.0
50814.0,STARLINK-3324,PAYLOAD,2023-10-22 18:27:34,15.08836297,0.0001418,53.2151,109.8548,86.6664,273.449,8.0621e-05,9.95e-06,0.0,0 STARLINK-3324,1 50814U 22001M   23295.76914773  .00000995  00000-0  80621-4 0  9992,2 50814  53.2151 109.8548 0001418  86.6664 273.4490 15.08836297100506,6917.892,95.438,540.738,538.776,0.0
50814.0,STARLINK-3324,PAYLOAD,2023-10-23 19:53:44,15.0884393,0.0001415,53.2155,105.0964,88.2345,271.8809,0.00023279,3.419e-05,0.0,0 STARLINK-3324,1 50814U 22001M   23296.82898774  .00003419  00000-0  23279-3 0  9991,2 50814  53.2155 105.0964 0001415  88.2345 271.8809 15.08843930100666,6917.868,95.437,540.712,538.754,0.0
50814.0,STARLINK-3324,PAYLOAD,2023-10-23 23:04:30,15.08853561,0.0001486,53.2154,104.5016,81.956,278.1601,-0.00010651,-1.983e-05,0.0,0 STARLINK-3324,1 50814U 22001M   23296.96146129 -.00001983  00000-0 -10651-3 0  9992,2 50814  53.2154 104.5016 0001486  81.9560 278.1601 15.08853561 99415,6917.839,95.437,540.732,538.676,0.0
50814.0,STARLINK-3324,PAYLOAD,2023-10-24 03:50:40,15.08835293,0.0001582,53.2154,103.6091,84.9291,275.1882,7.1408e-05,8.48e-06,0.0,0 STARLINK-3324,1 50814U 22001M   23297.16019107  .00000848  00000-0  71408-4 0  9995,2 50814  53.2154 103.6091 0001582  84.9291 275.1882 15.08835293100715,6917.895,95.438,540.854,538.665,0.0
50814.0,STARLINK-3324,PAYLOAD,2023-10-24 13:22:59,15.08838026,0.000142,53.2155,101.8251,89.0408,271.0747,0.00014082,1.954e-05,0.0,0 STARLINK-3324,1 50814U 22001M   23297.55763068  .00001954  00000-0  14082-3 0  9993,2 50814  53.2155 101.8251 0001420  89.0408 271.0747 15.08838026 99507,6917.886,95.438,540.734,538.769,0.0
50814.0,STARLINK-3324,PAYLOAD,2023-10-25 14:49:09,15.08842784,0.0001367,53.2154,97.0675,87.5312,272.5836,0.00011608,1.56e-05,0.0,0 STARLINK-3324,1 50814U 22001M   23298.61746898  .00001560  00000-0  11608-3 0  9997,2 50814  53.2154  97.0675 0001367  87.5312 272.5836 15.08842784100930,6917.872,95.437,540.683,538.791,0.0
50814.0,STARLINK-3324,PAYLOAD,2023-10-25 21:10:41,15.08848352,0.0001364,53.2153,95.8782,87.1119,273.0029,0.00022488,3.294e-05,0.0,0 STARLINK-3324,1 50814U 22001M   23298.88242678  .00003294  00000-0  22488-3 0  9997,2 50814  53.2153  95.8782 0001364  87.1119 273.0029 15.08848352 99701,6917.855,95.437,540.663,538.776,0.0
50814.0,STARLINK-3324,PAYLOAD,2023-10-26 14:39:56,15.08847042,0.0001393,53.2153,92.6073,87.8273,272.2878,0.00022343,3.27e-05,0.0,0 STARLINK-3324,1 50814U 22001M   23299.61106747  .00003270  00000-0  22343-3 0  9999,2 50814  53.2153  92.6073 0001393  87.8273 272.2878 15.08847042 99819,6917.859,95.437,540.688,538.76,0.0
50814.0,STARLINK-3324,PAYLOAD,2023-10-26 19:26:05,15.08853656,0.0001396,53.2151,91.7151,87.109,273.0062,0.00038912,5.913e-05,0.0,0 STARLINK-3324,1 50814U 22001M   23299.80978474  .00005913  00000-0  38912-3 0  9999,2 50814  53.2151  91.7151 0001396  87.1090 273.0062 15.08853656 99842,6917.839,95.437,540.669,538.738,0.0
50814.0,STARLINK-3324,PAYLOAD,2023-10-27 03:23:01,15.08840434,0.0001391,53.2149,90.2277,90.305,269.8102,3.6062e-05,2.86e-06,0.0,0 STARLINK-3324,1 50814U 22001M   23300.14098734  .00000286  00000-0  36062-4 0  9994,2 50814  53.2149  90.2277 0001391  90.3050 269.8102 15.08840434101166,6917.879,95.438,540.706,538.782,0.0
